[{"OBJECT_NAME":"THEA","OBJECT_ID":"2018-099AQ","EPOCH":"2026-03-09T22:33:02.658240","MEAN_MOTION":15.31454284,"ECCENTRICITY":0.00065849,"INCLINATION":97.4542,"RA_OF_ASC_NODE":137.8815,"ARG_OF_PERICENTER":275.4664,"MEAN_ANOMALY":84.5826,"EPHEMERIS_TYPE":0,"CLASSIFICATION_TYPE":"U","NORAD_CAT_ID":43796,"ELEMENT_SET_NO":999,"REV_AT_EPOCH":39748,"BSTAR":0.00074635274,"MEAN_MOTION_DOT":0.00022649,"MEAN_MOTION_DDOT":0},{"OBJECT_NAME":"STARLINK-35242","OBJECT_ID":"2025-198B","EPOCH":"2026-03-09T19:37:30.029952","MEAN_MOTION":15.30184611,"ECCENTRICITY":4.7e-5,"INCLINATION":53.1592,"RA_OF_ASC_NODE":270.1225,"ARG_OF_PERICENTER":293.9025,"MEAN_ANOMALY":66.1927,"EPHEMERIS_TYPE":0,"CLASSIFICATION_TYPE":"U","NORAD_CAT_ID":65493,"ELEMENT_SET_NO":999,"REV_AT_EPOCH":2864,"BSTAR":0.00085519556,"MEAN_MOTION_DOT":0.00025043,"MEAN_MOTION_DDOT":0}]
